{
    "links": {
        "self": "http://www.neowsapp.com/rest/v1/neo/3789413?api_key=iIulBulltgU6a56xZRHN4H3l9WmuAYTsLGpBGhQ2"
    },
    "id": "3789413",
    "neo_reference_id": "3789413",
    "name": "(2017 VO14)",
    "designation": "2017 VO14",
    "nasa_jpl_url": "http://ssd.jpl.nasa.gov/sbdb.cgi?sstr=3789413",
    "absolute_magnitude_h": 26.2,
    "estimated_diameter": {
        "kilometers": {
            "estimated_diameter_min": 0.0152951935,
            "estimated_diameter_max": 0.0342010925
        },
        "meters": {
            "estimated_diameter_min": 15.2951935344,
            "estimated_diameter_max": 34.201092472
        },
        "miles": {
            "estimated_diameter_min": 0.0095039897,
            "estimated_diameter_max": 0.021251567
        },
        "feet": {
            "estimated_diameter_min": 50.1810827555,
            "estimated_diameter_max": 112.2083122258
        }
    },
    "is_potentially_hazardous_asteroid": false,
    "close_approach_data": [
        {
            "close_approach_date": "2017-11-11",
            "close_approach_date_full": "2017-Nov-11 19:56",
            "epoch_date_close_approach": 1510430160000,
            "relative_velocity": {
                "kilometers_per_second": "6.7126589959",
                "kilometers_per_hour": "24165.57238526",
                "miles_per_hour": "15015.5469079411"
            },
            "miss_distance": {
                "astronomical": "0.0611932835",
                "lunar": "23.8041872815",
                "kilometers": "9154384.869906145",
                "miles": "5688270.989529001"
            },
            "orbiting_body": "Earth"
        }
    ],
    "orbital_data": {
        "orbit_id": "3",
        "orbit_determination_date": "2017-12-16 06:46:37",
        "first_observation_date": "2017-11-13",
        "last_observation_date": "2017-11-17",
        "data_arc_in_days": 4,
        "observations_used": 26,
        "orbit_uncertainty": "8",
        "minimum_orbit_intersection": ".0611538",
        "jupiter_tisserand_invariant": "3.208",
        "epoch_osculation": "2458071.5",
        "eccentricity": ".5806602022963525",
        "semi_major_axis": "2.500194920172621",
        "inclination": "3.10674070778192",
        "ascending_node_longitude": "68.22260559276229",
        "orbital_period": "1443.973521533375",
        "perihelion_distance": "1.048431232044874",
        "perihelion_argument": "341.3571139975519",
        "aphelion_distance": "3.951958608300369",
        "perihelion_time": "2458069.412265033896",
        "mean_anomaly": ".5204974859922099",
        "mean_motion": ".2493120508315908",
        "equinox": "J2000",
        "orbit_class": {
            "orbit_class_type": "AMO",
            "orbit_class_description": "Near-Earth asteroid orbits similar to that of 1221 Amor",
            "orbit_class_range": "1.017 AU < q (perihelion) < 1.3 AU"
        }
    },
    "is_sentry_object": false
}